QIANFAN-65              
1 62795U 25016L   26027.27999693  .00000144  00000+0  20429-3 0  9992
2 62795  88.9736  98.3513 0013597 203.4643 156.5890 13.50987312 53391
QIANFAN-66              
1 62796U 25016M   26027.23466620  .00000132  00000+0  18616-3 0  9990
2 62796  88.9756  98.3350 0014843 199.7993 160.2584 13.50992097 53436
QIANFAN-67              
1 62797U 25016N   26027.23877038  .00000142  00000+0  20198-3 0  9999
2 62797  88.9746  98.3557 0014577 206.7576 153.2824 13.50996395 53406
QIANFAN-68              
1 62798U 25016P   26027.23057736  .00000153  00000+0  21843-3 0  9995
2 62798  88.9749  98.4034 0014693 205.0064 155.0377 13.50988348 53383
QIANFAN-69              
1 62799U 25016Q   26027.24702489  .00000133  00000+0  18781-3 0  9994
2 62799  88.9728  98.2613 0015391 206.4509 153.5859 13.50988587 53425
QIANFAN-70              
1 62800U 25016R   26027.26352593  .00000140  00000+0  19777-3 0  9990
2 62800  88.9749  98.4078 0015332 196.4754 163.5901 13.50992431 53380
QIANFAN-71              
1 62801U 25016S   26027.25933394  .00000147  00000+0  20857-3 0  9992
2 62801  88.9743  98.3849 0015185 209.9989 150.0294 13.50991791 53380
QIANFAN-72              
1 62802U 25016T   26027.27578257  .00000136  00000+0  19176-3 0  9998
2 62802  88.9733  98.3921 0018187 218.6424 141.3427 13.50991729 53378
